CARTOSAT-2F             
1 43111U 18004A   20349.19494164  .00000822  00000-0  42133-4 0  9998
2 43111  97.3634  44.6602 0005315 135.6401 309.7810 15.19283911162007
PSLV DEB                
1 43112U 18004B   20349.21493290  .00005961  00000-0  22623-3 0  9991
2 43112  97.4373  60.6677 0010802 114.6788 245.5576 15.27172849162519
LEO VANTAGE 1           
1 43113U 18004C   20348.89194312 -.00000033  00000-0  11309-4 0  9994
2 43113  99.3490  41.1809 0046942 289.2741  70.3337 13.78879323146789
ICEYE-X1                
1 43114U 18004D   20349.14428780  .00002002  00000-0  85860-4 0  9993
2 43114  97.4278  57.7040 0011130 125.6526 234.5749 15.23852216162354
CARBONITE 2             
1 43115U 18004E   20349.17449157  .00000901  00000-0  41464-4 0  9996
2 43115  97.4255  56.9585 0011312 128.9035 231.3212 15.22856223162326
INS-1C                  
1 43116U 18004F   20349.19228552  .00002306  00000-0  96851-4 0  9994
2 43116  97.4360  59.3083 0010538 128.5614 231.6569 15.24419020162412
CORVUS BC3              
1 43118U 18004H   20349.19310107  .00001648  00000-0  71448-4 0  9997
2 43118  97.4263  57.8383 0011318 135.1020 225.1134 15.23743864162369
FLOCK 3P'-3             
1 43119U 18004J   20349.19278258  .00001475  00000-0  64192-4 0  9994
2 43119  97.4342  58.4516 0011234 136.2448 223.9681 15.23771277162368
FLOCK 3P'-2             
1 43120U 18004K   20348.73938017  .00001250  00000-0  55257-4 0  9994
2 43120  97.4347  57.8653 0011205 137.8553 222.3547 15.23520390162285
FLOCK 3P'-1             
1 43121U 18004L   20349.15289391  .00004900  00000-0  19543-3 0  9998
2 43121  97.4354  59.4144 0010630 133.0048 227.2083 15.25607772162354
FLOCK 3P'-4             
1 43122U 18004M   20348.73765948  .00001298  00000-0  57239-4 0  9991
2 43122  97.4356  57.9412 0011007 139.5822 220.6235 15.23531964162283
LEMUR-2-MCCAFFERTY      
1 43123U 18004N   20348.73451439  .00004064  00000-0  15991-3 0  9991
2 43123  97.4338  59.9558 0010544 132.3855 227.8277 15.26164928162436
LEMUR-2-PETERWEBSTER    
1 43124U 18004P   20348.80179677  .00003421  00000-0  13539-3 0  9993
2 43124  97.4339  59.8917 0010571 131.5261 228.6886 15.26091017162431
LEMUR-2-BROWNCOW        
1 43125U 18004Q   20349.20298678  .00004471  00000-0  17278-3 0  9992
2 43125  97.4359  60.7702 0010307 130.9212 229.2920 15.26718803162528
LEMUR-2-DAVEWILSON      
1 43126U 18004R   20348.80892109  .00003957  00000-0  15396-3 0  9994
2 43126  97.4351  60.2270 0010460 132.1385 228.0744 15.26556417162455
DEMOSAT 2               
1 43127U 18004S   20348.69126757  .00001652  00000-0  71020-4 0  9998
2 43127  97.4279  57.8400 0010626 137.6373 222.5687 15.24025048162312
MICROSAT-TD             
1 43128U 18004T   20332.73716149  .10569677  20755-5  34442-3 0  9994
2 43128  96.5543  22.8890 0008817 256.0248 104.0076 16.44115419165356
ARKYD 6A                
1 43130U 18004V   20348.77496843  .00001920  00000-0  81237-4 0  9996
2 43130  97.4300  58.3288 0010681 137.2139 222.9931 15.24382544162344
MICROMAS-2A             
1 43131U 18004W   20348.77336799  .00003609  00000-0  14246-3 0  9991
2 43131  97.4331  59.8556 0010024 132.6398 227.5687 15.26144645162439
PICSAT                  
1 43132U 18004X   20349.14295049  .00002724  00000-0  11178-3 0  9994
2 43132  97.4309  59.2578 0010509 135.1231 225.0859 15.25042980162437
CNUSAIL-1               
1 43133U 18004Y   20349.19265114  .00001777  00000-0  75640-4 0  9992
2 43133  97.4287  58.6248 0010522 136.2736 223.9336 15.24262992162395
OBJECT Z                
1 43134U 18004Z   20349.15040887  .00002304  00000-0  95845-4 0  9993
2 43134  97.4304  59.0685 0010335 135.7442 224.4623 15.24742085162410
OBJECT AA               
1 43135U 18004AA  20349.19817228  .00003015  00000-0  12210-3 0  9993
2 43135  97.4316  59.6623 0010245 134.9905 225.2165 15.25407821162469
OBJECT AB               
1 43136U 18004AB  20349.19851851  .00003213  00000-0  12850-3 0  9994
2 43136  97.4333  60.0617 0010063 134.5511 225.6551 15.25787006162475
FOX-1D (AO-92)          
1 43137U 18004AC  20348.89398143  .00002059  00000-0  86343-4 0  9997
2 43137  97.4293  58.6978 0010106 137.6139 222.5881 15.24604450162384
STEP CUBE LAB           
1 43138U 18004AD  20348.85649698  .00003242  00000-0  12922-3 0  9994
2 43138  97.4329  59.8812 0009794 135.8391 224.3630 15.25889857162442
SPACEBEE-4              
1 43139U 18004AE  20348.76979441  .00005312  00000-0  19809-3 0  9998
2 43139  97.4380  61.5199 0009348 132.6268 227.5761 15.27818171162523
SPACEBEE-3              
1 43140U 18004AF  20348.72603980  .00006350  00000-0  22766-3 0  9997
2 43140  97.4401  62.4847 0008982 130.5256 229.6768 15.29038906162573
SPACEBEE-2              
1 43141U 18004AG  20348.79592173  .00006748  00000-0  23871-3 0  9995
2 43141  97.4417  62.9418 0008919 129.4801 230.7229 15.29457903162604
SPACEBEE-1              
1 43142U 18004AH  20348.71616154  .00007774  00000-0  27042-3 0  9998
2 43142  97.4425  63.2458 0008832 129.2522 230.9504 15.29952388162609
CICERO 7                
1 43143U 18004AJ  20348.77300434  .00003330  00000-0  13182-3 0  9990
2 43143  97.4308  59.9879 0008184 139.3549 220.8302 15.26114621162454
TYVAK-61C               
1 43144U 18004AK  20348.87734097  .00003808  00000-0  14773-3 0  9995
2 43144  97.4349  61.0281 0008508 144.1577 216.0234 15.26702254162519
